0 TITAN 3C TRANSTAGE DEB
1 39297U 68081AH  13295.27916542 -.00000009  00000-0  10000-3 0    39
2 39297 008.5321 325.1842 0255984 282.6609 074.5161 01.00201042 20042
